*******************************************************************************
Ephemeris / PORT_LOGIN Tue Oct  6 15:51:14 2015 Pasadena, USA    / Horizons    
*******************************************************************************
Target body name: Mercury (199)                   {source: DE-0431LE-0431}
Center body name: Earth (399)                     {source: DE-0431LE-0431}
Center-site name: BODY CENTER
*******************************************************************************
Start time      : A.D. 1900-Jan-01 00:00:00.0000 CT 
Stop  time      : A.D. 2099-Dec-31 00:00:00.0000 CT 
Step-size       : 14400 minutes
*******************************************************************************
Center geodetic : 0.00000000,0.00000000,0.0000000 {E-lon(deg),Lat(deg),Alt(km)}
Center cylindric: 0.00000000,0.00000000,0.0000000 {E-lon(deg),Dxy(km),Dz(km)}
Center radii    : 6378.1 x 6378.1 x 6356.8 km     {Equator, meridian, pole}    
Output units    : AU-D                                                         
Output format   : 03
Reference frame : ICRF/J2000.0                                                 
Output type     : GEOMETRIC cartesian states
Coordinate systm: Ecliptic and Mean Equinox of Reference Epoch                 
*******************************************************************************
JDCT 
   X     Y     Z
   VX    VY    VZ
   LT    RG    RR
*******************************************************************************
$$SOE
2444780.500000000 = A.D. 1981-Jun-25 00:00:00.0000 (CT)
   8.540859755705107E-03  5.642710925704724E-01 -4.339826224483164E-02
   5.243789141675551E-03  4.916529812855830E-03 -1.548678607635751E-03
   3.268954709068786E-03  5.660019623304431E-01  5.099367615734671E-03
2444790.500000000 = A.D. 1981-Jul-05 00:00:00.0000 (CT)
   3.869223669206596E-02  6.676851308524139E-01 -5.108663296062479E-02
  -5.038216384947568E-04  1.556904118450150E-02  1.199538618137455E-04
   3.873949606320276E-03  6.707535815848421E-01  1.545961968778689E-02
2444800.500000000 = A.D. 1981-Jul-15 00:00:00.0000 (CT)
  -3.195685962645872E-02  8.632767366348879E-01 -3.911338852506589E-02
  -1.533535770077527E-02  2.224534556344433E-02  2.329560677913781E-03
   4.994397040913316E-03  8.647530410782490E-01  2.266871725638609E-02
2444810.500000000 = A.D. 1981-Jul-25 00:00:00.0000 (CT)
  -2.960970901903203E-01  1.062623795282114E+00 -5.913348924637966E-03
  -3.775843927900622E-02  1.377433874774890E-02  4.024617976549474E-03
   6.371100384983587E-03  1.103121835888695E+00  2.338210006251287E-02
2444820.500000000 = A.D. 1981-Aug-04 00:00:00.0000 (CT)
  -7.387773214759145E-01  1.060784189621794E+00  3.063841111965968E-02
  -4.574683500557282E-02 -1.604367343910404E-02  2.670292813372782E-03
   7.468068454650903E-03  1.293055969366612E+00  1.303861784192180E-02
2444830.500000000 = A.D. 1981-Aug-14 00:00:00.0000 (CT)
  -1.117060436022730E+00  7.723532607183854E-01  4.137533216577612E-02
  -2.737074711609672E-02 -3.801634904321404E-02 -4.598269070269533E-04
   7.847196342859198E-03  1.358699928306998E+00  8.785619604106706E-04
2444840.500000000 = A.D. 1981-Aug-24 00:00:00.0000 (CT)
  -1.277501126273504E+00  3.670496043487557E-01  2.608117382996784E-02
  -5.496247086171044E-03 -4.061470531448931E-02 -2.329398565238031E-03
   7.678213895857895E-03  1.329441524592563E+00 -5.977625172268021E-03
2444850.500000000 = A.D. 1981-Sep-03 00:00:00.0000 (CT)
  -1.248681848788194E+00 -7.746737939076920E-03 -6.258767445722455E-04
   1.011720927659943E-02 -3.332587616520837E-02 -2.827197068714329E-03
   7.211924598766692E-03  1.248706035527777E+00 -9.908848780979867E-03
2444860.500000000 = A.D. 1981-Sep-13 00:00:00.0000 (CT)
  -1.096992907129461E+00 -2.857413777275929E-01 -2.741800285674359E-02
   1.917243511839838E-02 -2.181361929691914E-02 -2.401866385740127E-03
   6.549023506388578E-03  1.133928269388616E+00 -1.299298881989589E-02
2444870.500000000 = A.D. 1981-Sep-23 00:00:00.0000 (CT)
  -8.863441932791999E-01 -4.377326814324346E-01 -4.630218839168911E-02
   2.184621657840622E-02 -8.398644038840875E-03 -1.263015024850932E-03
   5.715603694081333E-03  9.896261021232434E-01 -1.579225309510209E-02
2444880.500000000 = A.D. 1981-Oct-03 00:00:00.0000 (CT)
  -6.852755881464178E-01 -4.534241785752333E-01 -5.047625905637799E-02
   1.689697820194739E-02  5.007790561411435E-03  5.346823349848203E-04
   4.754707419556567E-03  8.232520696326068E-01 -1.685599013102733E-02
2444890.500000000 = A.D. 1981-Oct-13 00:00:00.0000 (CT)
  -5.823514430417022E-01 -3.537244812390429E-01 -3.397435946773800E-02
   1.888994683603478E-03  1.325894163442062E-02  2.786011357512529E-03
   3.940107830821491E-03  6.822085230644851E-01 -8.625990124274440E-03
2444900.500000000 = A.D. 1981-Oct-23 00:00:00.0000 (CT)
  -6.701424623973002E-01 -2.481129705709182E-01  2.266367826763468E-03
  -1.886760511021313E-02  3.694948710745743E-03  4.059058672480983E-03
   4.127197290505771E-03  7.146020588387417E-01  1.642371138199941E-02
2444910.500000000 = A.D. 1981-Nov-02 00:00:00.0000 (CT)
  -8.912566515124426E-01 -3.453112542096141E-01  3.536394697257055E-02
  -2.007933957358703E-02 -2.351966010448303E-02  2.033698760760157E-03
   5.524091990874227E-03  9.564668786186311E-01  2.727681269529413E-02
2444920.500000000 = A.D. 1981-Nov-12 00:00:00.0000 (CT)
  -9.947359986061881E-01 -6.671608607837323E-01  3.985169657076685E-02
   7.862046853010255E-04 -3.713148450166193E-02 -9.714122757721058E-04
   6.921450853075183E-03  1.198412065528510E+00  1.998635971821815E-02
2444930.500000000 = A.D. 1981-Nov-22 00:00:00.0000 (CT)
  -8.806572022499682E-01 -1.027998225305127E+00  2.109395930364595E-02
   2.093858191691451E-02 -3.299185981066535E-02 -2.524243319470389E-03
   7.818913726712621E-03  1.353802945123232E+00  1.139206716498209E-02
2444940.500000000 = A.D. 1981-Dec-02 00:00:00.0000 (CT)
  -6.009210088959734E-01 -1.300495957969261E+00 -6.403175758631199E-03
   3.376624386609452E-02 -2.068890581246783E-02 -2.805061460461049E-03
   8.274197112809170E-03  1.432632819771604E+00  4.629905348589406E-03
2444950.500000000 = A.D. 1981-Dec-12 00:00:00.0000 (CT)
  -2.289876010445749E-01 -1.431093905037478E+00 -3.216258475092037E-02
   3.947722599711270E-02 -5.095305442925706E-03 -2.223683822373566E-03
   8.372508826162525E-03  1.449654965267745E+00 -1.156423655329687E-03
2444960.500000000 = A.D. 1981-Dec-22 00:00:00.0000 (CT)
   1.652206575031976E-01 -1.398383543639183E+00 -4.858810159742662E-02
   3.810524086644843E-02  1.169886234159580E-02 -9.503399068874739E-04
   8.137406514019450E-03  1.408948261790868E+00 -7.109947673191691E-03
2444970.500000000 = A.D. 1982-Jan-01 00:00:00.0000 (CT)
   5.044040410662340E-01 -1.200462743602062E+00 -4.898027074890009E-02
   2.807491308449610E-02  2.736265968500842E-02  9.737944922844171E-04
   7.525775864497073E-03  1.303047697647009E+00 -1.437740971188345E-02
2444980.500000000 = A.D. 1982-Jan-11 00:00:00.0000 (CT)
   6.901984635039464E-01 -8.757226091396509E-01 -2.789302366638061E-02
   7.330563966201627E-03  3.530512396582155E-02  3.212926965888382E-03
   6.441818627842907E-03  1.115366320071939E+00 -2.326371979340618E-02
2444990.500000000 = A.D. 1982-Jan-21 00:00:00.0000 (CT)
   6.388202504833054E-01 -5.665012058854481E-01  1.039744682203026E-02
  -1.592104128272541E-02  2.219215651226367E-02  3.930612533409976E-03
   4.931640112207467E-03  8.538870157097113E-01 -2.658630269944897E-02
2445000.500000000 = A.D. 1982-Jan-31 00:00:00.0000 (CT)
   4.576481898137585E-01 -4.802528434120252E-01  3.881528783693688E-02
  -1.525397184161222E-02 -3.970055092433572E-03  1.365904774985197E-03
   3.837966803150298E-03  6.645233523473869E-01 -7.556249677914142E-03
2445010.500000000 = A.D. 1982-Feb-10 00:00:00.0000 (CT)
   3.918157340449978E-01 -5.838975936297869E-01  3.743250624287133E-02
   2.636016477780560E-03 -1.334044074673646E-02 -1.413874623351202E-03
   4.066954014062195E-03  7.041712588678261E-01  1.245344651613687E-02
2445020.500000000 = A.D. 1982-Feb-20 00:00:00.0000 (CT)
   4.971420985031190E-01 -6.971488445313272E-01  1.583293646391375E-02
   1.724418780054160E-02 -7.731071068604650E-03 -2.666946956489833E-03
   4.946142095136006E-03  8.563979562169214E-01  1.625446822921862E-02
2445030.500000000 = A.D. 1982-Mar-02 00:00:00.0000 (CT)
   7.122500396102412E-01 -7.190825636955497E-01 -1.201758689946392E-02
   2.461282327614421E-02  3.902143890148317E-03 -2.746417988680588E-03
   5.845909571098139E-03  1.012187865334613E+00  1.457982904475882E-02
2445040.500000000 = A.D. 1982-Mar-12 00:00:00.0000 (CT)
   9.674275710523164E-01 -6.124158176402484E-01 -3.643496909355118E-02
   2.534968303078381E-02  1.761028708834813E-02 -2.018991909098940E-03
   6.616175132025821E-03  1.145555212943054E+00  1.205766921320959E-02
2445050.500000000 = A.D. 1982-Mar-22 00:00:00.0000 (CT)
   1.196699364904659E+00 -3.659079006767401E-01 -5.013679752599497E-02
   1.926811833471259E-02  3.158313167330782E-02 -6.099937547197951E-04
   7.233226647194704E-03  1.252394370878054E+00  9.208130416594358E-03
2445060.500000000 = A.D. 1982-Apr-01 00:00:00.0000 (CT)
   1.324286852985101E+00  1.154132652496783E-02 -4.649018743151109E-02
   4.608214087519091E-03  4.308322004399944E-02  1.431427070292713E-03
   7.653444866683004E-03  1.325152900134379E+00  4.930214112395738E-03
2445070.500000000 = A.D. 1982-Apr-11 00:00:00.0000 (CT)
   1.254565569783465E+00  4.622160273684933E-01 -2.092803543413725E-02
  -1.994625565825540E-02  4.416423870424548E-02  3.581560669075598E-03
   7.722834295072341E-03  1.337167307224326E+00 -3.503990587111738E-03
2445080.500000000 = A.D. 1982-Apr-21 00:00:00.0000 (CT)
   9.315485580370045E-01  8.140968078238051E-01  1.815965110115108E-02
  -4.159704421462360E-02  2.218586334976448E-02  3.635928193671412E-03
   7.145943364174885E-03  1.237281738900986E+00 -1.666734276363559E-02
